{
  "type": "FeatureCollection",
  "features": [
    {
      "type": "Feature",
      "properties": {
        "norad_id": 43707,
        "name": "BEIDOU-3 M18 (C37)",
        "group": "beidou",
        "lat": 47.48549867106353,
        "lon": -43.0296808162152,
        "alt_km": 21532.630689600435,
        "timestamp": "2025-12-02T19:35:50.821268+00:00",
        "meta_object_name": "BEIDOU-3 M18 (C37)",
        "meta_object_id": "2018-093B",
        "meta_epoch": "2025-12-02T02:36:40.524768",
        "meta_mean_motion": 1.86226401,
        "meta_eccentricity": 0.0006357,
        "meta_inclination": 54.1734,
        "meta_ra_of_asc_node": 188.975,
        "meta_arg_of_pericenter": 350.835,
        "meta_mean_anomaly": 9.249,
        "meta_ephemeris_type": 0,
        "meta_classification_type": "U",
        "meta_norad_cat_id": 43707,
        "meta_element_set_no": 999,
        "meta_rev_at_epoch": 4786,
        "meta_bstar": 0,
        "meta_mean_motion_dot": 1.21e-06,
        "meta_mean_motion_ddot": 0,
        "tle_line1": "1 43707U 18093B   25336.10880237  .00000121  00000+0  00000+0 0  9992",
        "tle_line2": "2 43707  54.1734 188.9750 0006357 350.8350   9.2490  1.86226401 47869"
      },
      "geometry": {
        "type": "Point",
        "coordinates": [
          -43.0296808162152,
          47.48549867106353
        ]
      }
    },
    {
      "type": "Feature",
      "properties": {
        "norad_id": 44204,
        "name": "BEIDOU-3 IGSO-1 (C38)",
        "group": "beidou",
        "lat": 57.08196427001383,
        "lon": 111.2272456019533,
        "alt_km": 35875.746061970305,
        "timestamp": "2025-12-02T19:35:50.821280+00:00",
        "meta_object_name": "BEIDOU-3 IGSO-1 (C38)",
        "meta_object_id": "2019-023A",
        "meta_epoch": "2025-11-19T14:15:02.708640",
        "meta_mean_motion": 1.00252177,
        "meta_eccentricity": 0.0026966,
        "meta_inclination": 58.4003,
        "meta_ra_of_asc_node": 39.8168,
        "meta_arg_of_pericenter": 221.2202,
        "meta_mean_anomaly": 126.9723,
        "meta_ephemeris_type": 0,
        "meta_classification_type": "U",
        "meta_norad_cat_id": 44204,
        "meta_element_set_no": 999,
        "meta_rev_at_epoch": 510,
        "meta_bstar": 0,
        "meta_mean_motion_dot": -2.26e-06,
        "meta_mean_motion_ddot": 0,
        "tle_line1": "1 44204U 19023A   25323.59378135 -.00000226  00000+0  00000+0 0  9994",
        "tle_line2": "2 44204  58.4003  39.8168 0026966 221.2202 126.9723  1.00252177  5102"
      },
      "geometry": {
        "type": "Point",
        "coordinates": [
          111.2272456019533,
          57.08196427001383
        ]
      }
    },
    {
      "type": "Feature",
      "properties": {
        "norad_id": 44231,
        "name": "BEIDOU-2 G8 (C01)",
        "group": "beidou",
        "lat": 1.5782308819896587,
        "lon": 150.41982155259652,
        "alt_km": 35820.83819215975,
        "timestamp": "2025-12-02T19:35:50.821294+00:00",
        "meta_object_name": "BEIDOU-2 G8 (C01)",
        "meta_object_id": "2019-027A",
        "meta_epoch": "2025-12-02T11:21:38.666880",
        "meta_mean_motion": 1.002705,
        "meta_eccentricity": 0.0008241,
        "meta_inclination": 1.6338,
        "meta_ra_of_asc_node": 74.6927,
        "meta_arg_of_pericenter": 254.9742,
        "meta_mean_anomaly": 56.8972,
        "meta_ephemeris_type": 0,
        "meta_classification_type": "U",
        "meta_norad_cat_id": 44231,
        "meta_element_set_no": 999,
        "meta_rev_at_epoch": 2410,
        "meta_bstar": 0,
        "meta_mean_motion_dot": -2.27e-06,
        "meta_mean_motion_ddot": 0,
        "tle_line1": "1 44231U 19027A   25336.47336420 -.00000227  00000+0  00000+0 0  9991",
        "tle_line2": "2 44231   1.6338  74.6927 0008241 254.9742  56.8972  1.00270500 24109"
      },
      "geometry": {
        "type": "Point",
        "coordinates": [
          150.41982155259652,
          1.5782308819896587
        ]
      }
    },
    {
      "type": "Feature",
      "properties": {
        "norad_id": 44337,
        "name": "BEIDOU-3 IGSO-2 (C39)",
        "group": "beidou",
        "lat": -27.983504020133154,
        "lon": 138.87891286998266,
        "alt_km": 35874.888103109646,
        "timestamp": "2025-12-02T19:35:50.821306+00:00",
        "meta_object_name": "BEIDOU-3 IGSO-2 (C39)",
        "meta_object_id": "2019-035A",
        "meta_epoch": "2025-12-01T05:17:49.661952",
        "meta_mean_motion": 1.00274502,
        "meta_eccentricity": 0.00376064,
        "meta_inclination": 55.2223,
        "meta_ra_of_asc_node": 160.6035,
        "meta_arg_of_pericenter": 202.2564,
        "meta_mean_anomaly": 266.4761,
        "meta_ephemeris_type": 0,
        "meta_classification_type": "U",
        "meta_norad_cat_id": 44337,
        "meta_element_set_no": 999,
        "meta_rev_at_epoch": 2368,
        "meta_bstar": 0,
        "meta_mean_motion_dot": -2.5e-07,
        "meta_mean_motion_ddot": 0,
        "tle_line1": "1 44337U 19035A   25335.22071368 -.00000025  00000+0  00000+0 0  9992",
        "tle_line2": "2 44337  55.2223 160.6035 0037606 202.2564 266.4761  1.00274502 23688"
      },
      "geometry": {
        "type": "Point",
        "coordinates": [
          138.87891286998266,
          -27.983504020133154
        ]
      }
    },
    {
      "type": "Feature",
      "properties": {
        "norad_id": 44542,
        "name": "BEIDOU-3 M24 (C46)",
        "group": "beidou",
        "lat": 48.402988818773466,
        "lon": -116.84565013684485,
        "alt_km": 21502.98397479674,
        "timestamp": "2025-12-02T19:35:50.821317+00:00",
        "meta_object_name": "BEIDOU-3 M24 (C46)",
        "meta_object_id": "2019-061A",
        "meta_epoch": "2025-12-01T02:32:46.252896",
        "meta_mean_motion": 1.86229258,
        "meta_eccentricity": 0.00095598,
        "meta_inclination": 54.4002,
        "meta_ra_of_asc_node": 189.409,
        "meta_arg_of_pericenter": 23.5384,
        "meta_mean_anomaly": 336.5991,
        "meta_ephemeris_type": 0,
        "meta_classification_type": "U",
        "meta_norad_cat_id": 44542,
        "meta_element_set_no": 999,
        "meta_rev_at_epoch": 4210,
        "meta_bstar": 0,
        "meta_mean_motion_dot": 1.18e-06,
        "meta_mean_motion_ddot": 0,
        "tle_line1": "1 44542U 19061A   25335.10609089  .00000118  00000+0  00000+0 0  9995",
        "tle_line2": "2 44542  54.4002 189.4090 0009559  23.5384 336.5991  1.86229258 42106"
      },
      "geometry": {
        "type": "Point",
        "coordinates": [
          -116.84565013684485,
          48.402988818773466
        ]
      }
    },
    {
      "type": "Feature",
      "properties": {
        "norad_id": 44543,
        "name": "BEIDOU-3 M23 (C45)",
        "group": "beidou",
        "lat": -16.449635649041532,
        "lon": 177.1175407200648,
        "alt_km": 21517.95173674764,
        "timestamp": "2025-12-02T19:35:50.821329+00:00",
        "meta_object_name": "BEIDOU-3 M23 (C45)",
        "meta_object_id": "2019-061B",
        "meta_epoch": "2025-12-02T01:08:19.108032",
        "meta_mean_motion": 1.86229309,
        "meta_eccentricity": 0.00060105,
        "meta_inclination": 54.3988,
        "meta_ra_of_asc_node": 189.3457,
        "meta_arg_of_pericenter": 20.9817,
        "meta_mean_anomaly": 163.1206,
        "meta_ephemeris_type": 0,
        "meta_classification_type": "U",
        "meta_norad_cat_id": 44543,
        "meta_element_set_no": 999,
        "meta_rev_at_epoch": 4212,
        "meta_bstar": 0,
        "meta_mean_motion_dot": 1.21e-06,
        "meta_mean_motion_ddot": 0,
        "tle_line1": "1 44543U 19061B   25336.04744338  .00000121  00000+0  00000+0 0  9991",
        "tle_line2": "2 44543  54.3988 189.3457 0006010  20.9817 163.1206  1.86229309 42128"
      },
      "geometry": {
        "type": "Point",
        "coordinates": [
          177.1175407200648,
          -16.449635649041532
        ]
      }
    },
    {
      "type": "Feature",
      "properties": {
        "norad_id": 44709,
        "name": "BEIDOU-3 IGSO-3 (C40)",
        "group": "beidou",
        "lat": -14.154880651189929,
        "lon": 113.08759068777444,
        "alt_km": 35608.86594754827,
        "timestamp": "2025-12-02T19:35:50.821340+00:00",
        "meta_object_name": "BEIDOU-3 IGSO-3 (C40)",
        "meta_object_id": "2019-073A",
        "meta_epoch": "2025-11-20T07:11:22.740000",
        "meta_mean_motion": 1.00250097,
        "meta_eccentricity": 0.0044538,
        "meta_inclination": 55.163,
        "meta_ra_of_asc_node": 283.159,
        "meta_arg_of_pericenter": 191.5856,
        "meta_mean_anomaly": 168.2409,
        "meta_ephemeris_type": 0,
        "meta_classification_type": "U",
        "meta_norad_cat_id": 44709,
        "meta_element_set_no": 999,
        "meta_rev_at_epoch": 2236,
        "meta_bstar": 0,
        "meta_mean_motion_dot": -2.06e-06,
        "meta_mean_motion_ddot": 0,
        "tle_line1": "1 44709U 19073A   25324.29956875 -.00000206  00000+0  00000+0 0  9998",
        "tle_line2": "2 44709  55.1630 283.1590 0044538 191.5856 168.2409  1.00250097 22360"
      },
      "geometry": {
        "type": "Point",
        "coordinates": [
          113.08759068777444,
          -14.154880651189929
        ]
      }
    }
  ]
}